{"type": "FeatureCollection", "features": [ {"type": "Feature", "properties": {"norad_id": 37996, "name": "COSMOS 2251 DEB", "group": "cosmos-2251-debris", "lat": 38.10517678287629, "lon": 15.31757020800398, "alt_km": 1013.5171041621616, "timestamp": "2025-12-09T20:37:09.687932+00:00", "meta": {"OBJECT_NAME": "COSMOS 2251 DEB", "OBJECT_ID": "1993-036BQX", "EPOCH": "2025-11-16T18:35:00.708864", "MEAN_MOTION": 14.09591608, "ECCENTRICITY": 0.02219827, "INCLINATION": 74.0658, "RA_OF_ASC_NODE": 248.8308, "ARG_OF_PERICENTER": 5.4709, "MEAN_ANOMALY": 354.8776, "EPHEMERIS_TYPE": 0, "CLASSIFICATION_TYPE": "U", "NORAD_CAT_ID": 37996, "ELEMENT_SET_NO": 999, "REV_AT_EPOCH": 55769, "BSTAR": 0.0096790999, "MEAN_MOTION_DOT": 0.00021331, "MEAN_MOTION_DDOT": 0}, "tle": {"line1": "1 37996U 93036BQX 25320.77431376  .00021331  00000+0  96791-2 0  9998", "line2": "2 37996  74.0658 248.8308 0221982   5.4709 354.8776 14.09591608557693"}}, "geometry": {"type": "Point", "coordinates": [15.31757020800398, 38.10517678287629]}}, {"type": "Feature", "properties": {"norad_id": 37998, "name": "COSMOS 2251 DEB", "group": "cosmos-2251-debris", "lat": 47.07856030191124, "lon": 42.55107211515352, "alt_km": 750.1459230424334, "timestamp": "2025-12-09T20:37:09.687942+00:00", "meta": {"OBJECT_NAME": "COSMOS 2251 DEB", "OBJECT_ID": "1993-036BQZ", "EPOCH": "2025-12-07T01:34:33.386016", "MEAN_MOTION": 14.45444842, "ECCENTRICITY": 0.00199405, "INCLINATION": 74.0387, "RA_OF_ASC_NODE": 245.6796, "ARG_OF_PERICENTER": 320.6712, "MEAN_ANOMALY": 39.2997, "EPHEMERIS_TYPE": 0, "CLASSIFICATION_TYPE": "U", "NORAD_CAT_ID": 37998, "ELEMENT_SET_NO": 999, "REV_AT_EPOCH": 64205, "BSTAR": 0.00093558552, "MEAN_MOTION_DOT": 3.277e-05, "MEAN_MOTION_DDOT": 0}, "tle": {"line1": "1 37998U 93036BQZ 25341.06566419  .00003277  00000+0  93559-3 0  9991", "line2": "2 37998  74.0387 245.6796 0019940 320.6712  39.2997 14.45444842642056"}}, "geometry": {"type": "Point", "coordinates": [42.55107211515352, 47.07856030191124]}}, {"type": "Feature", "properties": {"norad_id": 38001, "name": "COSMOS 2251 DEB", "group": "cosmos-2251-debris", "lat": 71.16604707055657, "lon": -99.2635160880688, "alt_km": 670.5943356684338, "timestamp": "2025-12-09T20:37:09.687953+00:00", "meta": {"OBJECT_NAME": "COSMOS 2251 DEB", "OBJECT_ID": "1993-036BRC", "EPOCH": "2025-12-09T10:34:35.205600", "MEAN_MOTION": 14.79014466, "ECCENTRICITY": 0.00654, "INCLINATION": 74.0004, "RA_OF_ASC_NODE": 138.83, "ARG_OF_PERICENTER": 288.8948, "MEAN_ANOMALY": 103.9178, "EPHEMERIS_TYPE": 0, "CLASSIFICATION_TYPE": "U", "NORAD_CAT_ID": 38001, "ELEMENT_SET_NO": 999, "REV_AT_EPOCH": 74659, "BSTAR": 0.0011268018, "MEAN_MOTION_DOT": 8.608e-05, "MEAN_MOTION_DDOT": 0}, "tle": {"line1": "1 38001U 93036BRC 25343.44068525  .00008608  00000+0  11268-2 0  9995", "line2": "2 38001  74.0004 138.8300 0065400 288.8948 103.9178 14.79014466746596"}}, "geometry": {"type": "Point", "coordinates": [-99.2635160880688, 71.16604707055657]}}, {"type": "Feature", "properties": {"norad_id": 38006, "name": "COSMOS 2251 DEB", "group": "cosmos-2251-debris", "lat": -69.8754933648278, "lon": -8.794781870642513, "alt_km": 728.1119473619683, "timestamp": "2025-12-09T20:37:09.687963+00:00", "meta": {"OBJECT_NAME": "COSMOS 2251 DEB", "OBJECT_ID": "1993-036BRH", "EPOCH": "2025-12-04T21:24:00.571392", "MEAN_MOTION": 14.45613673, "ECCENTRICITY": 0.0074849, "INCLINATION": 73.8488, "RA_OF_ASC_NODE": 52.8364, "ARG_OF_PERICENTER": 2.834, "MEAN_ANOMALY": 357.3225, "EPHEMERIS_TYPE": 0, "CLASSIFICATION_TYPE": "U", "NORAD_CAT_ID": 38006, "ELEMENT_SET_NO": 999, "REV_AT_EPOCH": 62846, "BSTAR": 0.0044211, "MEAN_MOTION_DOT": 0.00016183, "MEAN_MOTION_DDOT": 0}, "tle": {"line1": "1 38006U 93036BRH 25338.89167328  .00016183  00000+0  44211-2 0  9995", "line2": "2 38006  73.8488  52.8364 0074849   2.8340 357.3225 14.45613673628467"}}, "geometry": {"type": "Point", "coordinates": [-8.794781870642513, -69.8754933648278]}}, {"type": "Feature", "properties": {"norad_id": 38054, "name": "COSMOS 2251 DEB", "group": "cosmos-2251-debris", "lat": -3.657192680849495, "lon": 91.5631154710169, "alt_km": 911.6205459337752, "timestamp": "2025-12-09T20:37:09.687973+00:00", "meta": {"OBJECT_NAME": "COSMOS 2251 DEB", "OBJECT_ID": "1993-036BRL", "EPOCH": "2025-12-06T19:35:06.065952", "MEAN_MOTION": 13.62293123, "ECCENTRICITY": 0.0360398, "INCLINATION": 73.9587, "RA_OF_ASC_NODE": 275.4844, "ARG_OF_PERICENTER": 254.7432, "MEAN_ANOMALY": 133.9151, "EPHEMERIS_TYPE": 0, "CLASSIFICATION_TYPE": "U", "NORAD_CAT_ID": 38054, "ELEMENT_SET_NO": 999, "REV_AT_EPOCH": 67099, "BSTAR": 0.0049752628, "MEAN_MOTION_DOT": 5.934e-05, "MEAN_MOTION_DDOT": 0}, "tle": {"line1": "1 38054U 93036BRL 25340.81604243  .00005934  00000+0  49753-2 0  9993", "line2": "2 38054  73.9587 275.4844 0360398 254.7432 133.9151 13.62293123670997"}}, "geometry": {"type": "Point", "coordinates": [91.5631154710169, -3.657192680849495]}}, {"type": "Feature", "properties": {"norad_id": 38055, "name": "COSMOS 2251 DEB", "group": "cosmos-2251-debris", "lat": 11.712160784566352, "lon": -144.1772963800664, "alt_km": 600.7747257648034, "timestamp": "2025-12-09T20:37:09.687983+00:00", "meta": {"OBJECT_NAME": "COSMOS 2251 DEB", "OBJECT_ID": "1993-036BRM", "EPOCH": "2025-12-08T09:35:56.658912", "MEAN_MOTION": 14.76901883, "ECCENTRICITY": 0.00657195, "INCLINATION": 74.0086, "RA_OF_ASC_NODE": 215.2783, "ARG_OF_PERICENTER": 343.7571, "MEAN_ANOMALY": 193.0951, "EPHEMERIS_TYPE": 0, "CLASSIFICATION_TYPE": "U", "NORAD_CAT_ID": 38055, "ELEMENT_SET_NO": 999, "REV_AT_EPOCH": 60618, "BSTAR": 0.0010877136, "MEAN_MOTION_DOT": 7.901e-05, "MEAN_MOTION_DDOT": 0}, "tle": {"line1": "1 38055U 93036BRM 25342.39996133  .00007901  00000+0  10877-2 0  9992", "line2": "2 38055  74.0086 215.2783 0065719 343.7571 193.0951 14.76901883606180"}}, "geometry": {"type": "Point", "coordinates": [-144.1772963800664, 11.712160784566352]}}, {"type": "Feature", "properties": {"norad_id": 38060, "name": "COSMOS 2251 DEB", "group": "cosmos-2251-debris", "lat": 11.685294249618563, "lon": -55.771568215745496, "alt_km": 648.4413734866639, "timestamp": "2025-12-09T20:37:09.687994+00:00", "meta": {"OBJECT_NAME": "COSMOS 2251 DEB", "OBJECT_ID": "1993-036BRS", "EPOCH": "2025-12-08T15:02:26.401344", "MEAN_MOTION": 14.63819883, "ECCENTRICITY": 0.0057903, "INCLINATION": 74.0428, "RA_OF_ASC_NODE": 303.2001, "ARG_OF_PERICENTER": 50.388, "MEAN_ANOMALY": 310.2378, "EPHEMERIS_TYPE": 0, "CLASSIFICATION_TYPE": "U", "NORAD_CAT_ID": 38060, "ELEMENT_SET_NO": 999, "REV_AT_EPOCH": 71904, "BSTAR": 0.0010404, "MEAN_MOTION_DOT": 5.538e-05, "MEAN_MOTION_DDOT": 0}, "tle": {"line1": "1 38060U 93036BRS 25342.62669446  .00005538  00000+0  10404-2 0  9998", "line2": "2 38060  74.0428 303.2001 0057903  50.3880 310.2378 14.63819883719047"}}, "geometry": {"type": "Point", "coordinates": [-55.771568215745496, 11.685294249618563]}}, {"type": "Feature", "properties": {"norad_id": 38062, "name": "COSMOS 2251 DEB", "group": "cosmos-2251-debris", "lat": 19.58356179115316, "lon": -57.85488705442845, "alt_km": 577.3204946565347, "timestamp": "2025-12-09T20:37:09.688004+00:00", "meta": {"OBJECT_NAME": "COSMOS 2251 DEB", "OBJECT_ID": "1993-036BRU", "EPOCH": "2025-12-06T04:12:38.753856", "MEAN_MOTION": 14.94290132, "ECCENTRICITY": 0.00122346, "INCLINATION": 74.0094, "RA_OF_ASC_NODE": 303.7202, "ARG_OF_PERICENTER": 72.1633, "MEAN_ANOMALY": 298.7726, "EPHEMERIS_TYPE": 0, "CLASSIFICATION_TYPE": "U", "NORAD_CAT_ID": 38062, "ELEMENT_SET_NO": 999, "REV_AT_EPOCH": 62932, "BSTAR": 0.0035053507, "MEAN_MOTION_DOT": 0.00037877, "MEAN_MOTION_DDOT": 0}, "tle": {"line1": "1 38062U 93036BRU 25340.17544854  .00037877  00000+0  35054-2 0  9992", "line2": "2 38062  74.0094 303.7202 0012234  72.1633 298.7726 14.94290132629324"}}, "geometry": {"type": "Point", "coordinates": [-57.85488705442845, 19.58356179115316]}}, {"type": "Feature", "properties": {"norad_id": 38064, "name": "COSMOS 2251 DEB", "group": "cosmos-2251-debris", "lat": -20.9101736419127, "lon": 123.32178354186539, "alt_km": 709.2734121339035, "timestamp": "2025-12-09T20:37:09.688014+00:00", "meta": {"OBJECT_NAME": "COSMOS 2251 DEB", "OBJECT_ID": "1993-036BRW", "EPOCH": "2025-12-08T19:59:17.678400", "MEAN_MOTION": 14.56247306, "ECCENTRICITY": 0.00475278, "INCLINATION": 74.0223, "RA_OF_ASC_NODE": 131.5539, "ARG_OF_PERICENTER": 251.7836, "MEAN_ANOMALY": 107.8151, "EPHEMERIS_TYPE": 0, "CLASSIFICATION_TYPE": "U", "NORAD_CAT_ID": 38064, "ELEMENT_SET_NO": 999, "REV_AT_EPOCH": 71808, "BSTAR": 0.0016943453, "MEAN_MOTION_DOT": 7.589e-05, "MEAN_MOTION_DDOT": 0}, "tle": {"line1": "1 38064U 93036BRW 25342.83284350  .00007589  00000+0  16943-2 0  9994", "line2": "2 38064  74.0223 131.5539 0047527 251.7836 107.8151 14.56247306718080"}}, "geometry": {"type": "Point", "coordinates": [123.32178354186539, -20.9101736419127]}}, {"type": "Feature", "properties": {"norad_id": 38067, "name": "COSMOS 2251 DEB", "group": "cosmos-2251-debris", "lat": -73.78173328278054, "lon": -179.79112378808225, "alt_km": 742.9726417213833, "timestamp": "2025-12-09T20:37:09.688024+00:00", "meta": {"OBJECT_NAME": "COSMOS 2251 DEB", "OBJECT_ID": "1993-036BRZ", "EPOCH": "2025-11-29T04:46:36.876288", "MEAN_MOTION": 14.61044936, "ECCENTRICITY": 0.00691529, "INCLINATION": 74.017, "RA_OF_ASC_NODE": 300.4181, "ARG_OF_PERICENTER": 91.9303, "MEAN_ANOMALY": 288.2542, "EPHEMERIS_TYPE": 0, "CLASSIFICATION_TYPE": "U", "NORAD_CAT_ID": 38067, "ELEMENT_SET_NO": 999, "REV_AT_EPOCH": 62358, "BSTAR": 0.00037425936, "MEAN_MOTION_DOT": 1.87e-05, "MEAN_MOTION_DDOT": 0}, "tle": {"line1": "1 38067U 93036BRZ 25333.19903792  .00001870  00000+0  37426-3 0  9991", "line2": "2 38067  74.0170 300.4181 0069152  91.9303 288.2542 14.61044936623583"}}, "geometry": {"type": "Point", "coordinates": [-179.79112378808225, -73.78173328278054]}}]}